CSS (TIANHE)            
1 48274U 21035A   26186.21532296  .00017226  00000+0  22739-3 0  9992
2 48274  41.4675 212.3196 0002888 272.5684  87.4823 15.57977003295987
