{"fetched_at":"2026-07-05T22:07:10.716Z","source":"https://celestrak.org/NORAD/elements/gp.php?GROUP=stations&FORMAT=JSON","constellation":"tiangong","records":[{"OBJECT_NAME":"CSS (TIANHE)","OBJECT_ID":"2021-035A","EPOCH":"2026-07-05T05:10:03.903744","CLASSIFICATION_TYPE":"U","MEAN_MOTION":15.57977003,"ECCENTRICITY":0.00028885,"INCLINATION":41.4675,"RA_OF_ASC_NODE":212.3196,"ARG_OF_PERICENTER":272.5684,"MEAN_ANOMALY":87.4823,"EPHEMERIS_TYPE":0,"NORAD_CAT_ID":48274,"ELEMENT_SET_NO":999,"REV_AT_EPOCH":29598,"BSTAR":0.00022739435,"MEAN_MOTION_DOT":0.00017226,"MEAN_MOTION_DDOT":0}]}
